CCSDS_OMM_VERS = 2.0
CREATION_DATE  = 
ORIGINATOR     = 

OBJECT_NAME    = SHENZHOU-21 (SZ-21)
OBJECT_ID      = 2025-246A
CENTER_NAME    = EARTH
REF_FRAME      = TEME
TIME_SYSTEM    = UTC
MEAN_ELEMENT_THEORY = SGP/SGP4

EPOCH          = 2025-11-01T15:55:49.929312
MEAN_MOTION    = 15.60184648
ECCENTRICITY   = .00067877
INCLINATION    = 41.4666
RA_OF_ASC_NODE = 266.1848
ARG_OF_PERICENTER = 305.6533
MEAN_ANOMALY   = 54.3673

EPHEMERIS_TYPE = 0
CLASSIFICATION_TYPE = U
NORAD_CAT_ID   = 66263
ELEMENT_SET_NO = 999
REV_AT_EPOCH   = 25759
BSTAR          = .38071807E-3
MEAN_MOTION_DOT = .3171E-3
MEAN_MOTION_DDOT = 0

